[{"OBJECT_NAME":"STARLINK-3929","OBJECT_ID":"2022-051AL","EPOCH":"2026-03-20T08:50:22.462656","MEAN_MOTION":15.08831257,"ECCENTRICITY":0.00012934,"INCLINATION":53.2176,"RA_OF_ASC_NODE":71.1819,"ARG_OF_PERICENTER":88.4635,"MEAN_ANOMALY":271.6506,"EPHEMERIS_TYPE":0,"CLASSIFICATION_TYPE":"U","NORAD_CAT_ID":52567,"ELEMENT_SET_NO":999,"REV_AT_EPOCH":21319,"BSTAR":1.0626099e-5,"MEAN_MOTION_DOT":-1.19e-6,"MEAN_MOTION_DDOT":0},{"OBJECT_NAME":"STARLINK-3930","OBJECT_ID":"2022-051AM","EPOCH":"2026-03-20T08:34:28.666272","MEAN_MOTION":15.08834942,"ECCENTRICITY":0.00011202,"INCLINATION":53.2149,"RA_OF_ASC_NODE":71.2301,"ARG_OF_PERICENTER":88.8735,"MEAN_ANOMALY":271.2385,"EPHEMERIS_TYPE":0,"CLASSIFICATION_TYPE":"U","NORAD_CAT_ID":52568,"ELEMENT_SET_NO":999,"REV_AT_EPOCH":21319,"BSTAR":0.00017298692,"MEAN_MOTION_DOT":2.466e-5,"MEAN_MOTION_DDOT":0},{"OBJECT_NAME":"STARLINK-3927","OBJECT_ID":"2022-051AN","EPOCH":"2026-03-20T07:09:41.259744","MEAN_MOTION":15.08841917,"ECCENTRICITY":0.0001235,"INCLINATION":53.2172,"RA_OF_ASC_NODE":71.4937,"ARG_OF_PERICENTER":80.9941,"MEAN_ANOMALY":279.1191,"EPHEMERIS_TYPE":0,"CLASSIFICATION_TYPE":"U","NORAD_CAT_ID":52569,"ELEMENT_SET_NO":999,"REV_AT_EPOCH":21318,"BSTAR":6.5508e-5,"MEAN_MOTION_DOT":7.55e-6,"MEAN_MOTION_DDOT":0},{"OBJECT_NAME":"STARLINK-3901","OBJECT_ID":"2022-051AQ","EPOCH":"2026-03-20T08:39:44.054784","MEAN_MOTION":15.0885149,"ECCENTRICITY":0.0001204,"INCLINATION":53.2174,"RA_OF_ASC_NODE":71.2134,"ARG_OF_PERICENTER":92.4067,"MEAN_ANOMALY":267.7063,"EPHEMERIS_TYPE":0,"CLASSIFICATION_TYPE":"U","NORAD_CAT_ID":52574,"ELEMENT_SET_NO":999,"REV_AT_EPOCH":21319,"BSTAR":0.00017856,"MEAN_MOTION_DOT":2.556e-5,"MEAN_MOTION_DDOT":0},{"OBJECT_NAME":"STARLINK-3932","OBJECT_ID":"2022-051AS","EPOCH":"2026-03-20T09:50:02.225472","MEAN_MOTION":15.08834736,"ECCENTRICITY":0.00013207,"INCLINATION":53.217,"RA_OF_ASC_NODE":70.9959,"ARG_OF_PERICENTER":85.6177,"MEAN_ANOMALY":274.4966,"EPHEMERIS_TYPE":0,"CLASSIFICATION_TYPE":"U","NORAD_CAT_ID":52576,"ELEMENT_SET_NO":999,"REV_AT_EPOCH":21320,"BSTAR":6.1746866e-5,"MEAN_MOTION_DOT":6.95e-6,"MEAN_MOTION_DDOT":0},{"OBJECT_NAME":"STARLINK-3836","OBJECT_ID":"2022-051AT","EPOCH":"2026-03-20T07:52:44.980032","MEAN_MOTION":15.08835397,"ECCENTRICITY":0.00012376,"INCLINATION":53.2174,"RA_OF_ASC_NODE":86.3606,"ARG_OF_PERICENTER":85.9597,"MEAN_ANOMALY":274.1536,"EPHEMERIS_TYPE":0,"CLASSIFICATION_TYPE":"U","NORAD_CAT_ID":52577,"ELEMENT_SET_NO":999,"REV_AT_EPOCH":21298,"BSTAR":0.00012895938,"MEAN_MOTION_DOT":1.765e-5,"MEAN_MOTION_DDOT":0},{"OBJECT_NAME":"STARLINK-3833","OBJECT_ID":"2022-051AU","EPOCH":"2026-03-20T09:33:27.534240","MEAN_MOTION":15.0880308,"ECCENTRICITY":0.00010271,"INCLINATION":53.2166,"RA_OF_ASC_NODE":86.0482,"ARG_OF_PERICENTER":102.352,"MEAN_ANOMALY":257.7587,"EPHEMERIS_TYPE":0,"CLASSIFICATION_TYPE":"U","NORAD_CAT_ID":52578,"ELEMENT_SET_NO":999,"REV_AT_EPOCH":21299,"BSTAR":-0.0002292056,"MEAN_MOTION_DOT":-3.93e-5,"MEAN_MOTION_DDOT":0},{"OBJECT_NAME":"STARLINK-3893","OBJECT_ID":"2022-051AV","EPOCH":"2026-03-20T07:42:07.412832","MEAN_MOTION":15.08837465,"ECCENTRICITY":0.0001292,"INCLINATION":53.2164,"RA_OF_ASC_NODE":86.3956,"ARG_OF_PERICENTER":81.2169,"MEAN_ANOMALY":278.8969,"EPHEMERIS_TYPE":0,"CLASSIFICATION_TYPE":"U","NORAD_CAT_ID":52579,"ELEMENT_SET_NO":999,"REV_AT_EPOCH":21298,"BSTAR":3.8381e-5,"MEAN_MOTION_DOT":3.23e-6,"MEAN_MOTION_DDOT":0},{"OBJECT_NAME":"STARLINK-3919","OBJECT_ID":"2022-051AW","EPOCH":"2026-03-20T09:24:11.646144","MEAN_MOTION":15.08837146,"ECCENTRICITY":0.00012263,"INCLINATION":53.2167,"RA_OF_ASC_NODE":86.0857,"ARG_OF_PERICENTER":86.9187,"MEAN_ANOMALY":273.1945,"EPHEMERIS_TYPE":0,"CLASSIFICATION_TYPE":"U","NORAD_CAT_ID":52580,"ELEMENT_SET_NO":999,"REV_AT_EPOCH":21299,"BSTAR":7.730567e-5,"MEAN_MOTION_DOT":9.43e-6,"MEAN_MOTION_DDOT":0},{"OBJECT_NAME":"STARLINK-3915","OBJECT_ID":"2022-051AX","EPOCH":"2026-03-20T06:32:36.920256","MEAN_MOTION":15.08806851,"ECCENTRICITY":0.0001618,"INCLINATION":53.218,"RA_OF_ASC_NODE":71.6115,"ARG_OF_PERICENTER":83.2017,"MEAN_ANOMALY":276.9159,"EPHEMERIS_TYPE":0,"CLASSIFICATION_TYPE":"U","NORAD_CAT_ID":52581,"ELEMENT_SET_NO":999,"REV_AT_EPOCH":21318,"BSTAR":-0.0002002,"MEAN_MOTION_DOT":-3.47e-5,"MEAN_MOTION_DDOT":0},{"OBJECT_NAME":"STARLINK-3895","OBJECT_ID":"2022-051AZ","EPOCH":"2026-03-20T06:27:16.397856","MEAN_MOTION":15.08835445,"ECCENTRICITY":0.0001359,"INCLINATION":53.2172,"RA_OF_ASC_NODE":71.6281,"ARG_OF_PERICENTER":83.7647,"MEAN_ANOMALY":276.35,"EPHEMERIS_TYPE":0,"CLASSIFICATION_TYPE":"U","NORAD_CAT_ID":52583,"ELEMENT_SET_NO":999,"REV_AT_EPOCH":21318,"BSTAR":-5.0306e-6,"MEAN_MOTION_DOT":-3.68e-6,"MEAN_MOTION_DDOT":0},{"OBJECT_NAME":"STARLINK-3922","OBJECT_ID":"2022-051BA","EPOCH":"2026-03-20T09:48:38.712096","MEAN_MOTION":15.08836189,"ECCENTRICITY":0.00013521,"INCLINATION":53.2171,"RA_OF_ASC_NODE":71.0001,"ARG_OF_PERICENTER":83.9005,"MEAN_ANOMALY":276.2141,"EPHEMERIS_TYPE":0,"CLASSIFICATION_TYPE":"U","NORAD_CAT_ID":52584,"ELEMENT_SET_NO":999,"REV_AT_EPOCH":21320,"BSTAR":6.5655252e-5,"MEAN_MOTION_DOT":7.57e-6,"MEAN_MOTION_DDOT":0},{"OBJECT_NAME":"STARLINK-3906","OBJECT_ID":"2022-051BB","EPOCH":"2026-03-20T09:22:10.119360","MEAN_MOTION":15.08838431,"ECCENTRICITY":0.00014568,"INCLINATION":53.2172,"RA_OF_ASC_NODE":71.0447,"ARG_OF_PERICENTER":89.3522,"MEAN_ANOMALY":270.7637,"EPHEMERIS_TYPE":0,"CLASSIFICATION_TYPE":"U","NORAD_CAT_ID":52585,"ELEMENT_SET_NO":999,"REV_AT_EPOCH":21320,"BSTAR":0.00011361492,"MEAN_MOTION_DOT":1.521e-5,"MEAN_MOTION_DDOT":0},{"OBJECT_NAME":"STARLINK-3910","OBJECT_ID":"2022-051BC","EPOCH":"2026-03-20T06:21:58.647168","MEAN_MOTION":15.08833735,"ECCENTRICITY":0.0001258,"INCLINATION":53.217,"RA_OF_ASC_NODE":71.6449,"ARG_OF_PERICENTER":84.9433,"MEAN_ANOMALY":275.1703,"EPHEMERIS_TYPE":0,"CLASSIFICATION_TYPE":"U","NORAD_CAT_ID":52586,"ELEMENT_SET_NO":999,"REV_AT_EPOCH":21318,"BSTAR":-2.3922e-5,"MEAN_MOTION_DOT":-6.68e-6,"MEAN_MOTION_DDOT":0},{"OBJECT_NAME":"STARLINK-3867","OBJECT_ID":"2022-051BD","EPOCH":"2026-03-20T09:02:19.438368","MEAN_MOTION":15.08844074,"ECCENTRICITY":0.00012446,"INCLINATION":53.2169,"RA_OF_ASC_NODE":71.0003,"ARG_OF_PERICENTER":82.7036,"MEAN_ANOMALY":277.4097,"EPHEMERIS_TYPE":0,"CLASSIFICATION_TYPE":"U","NORAD_CAT_ID":52587,"ELEMENT_SET_NO":999,"REV_AT_EPOCH":21320,"BSTAR":7.5578696e-5,"MEAN_MOTION_DOT":9.15e-6,"MEAN_MOTION_DDOT":0},{"OBJECT_NAME":"STARLINK-3917","OBJECT_ID":"2022-051BE","EPOCH":"2026-03-20T09:16:50.938752","MEAN_MOTION":15.08821791,"ECCENTRICITY":0.00014393,"INCLINATION":53.2174,"RA_OF_ASC_NODE":71.0996,"ARG_OF_PERICENTER":78.2299,"MEAN_ANOMALY":281.8855,"EPHEMERIS_TYPE":0,"CLASSIFICATION_TYPE":"U","NORAD_CAT_ID":52588,"ELEMENT_SET_NO":999,"REV_AT_EPOCH":21320,"BSTAR":0.00028395134,"MEAN_MOTION_DOT":4.232e-5,"MEAN_MOTION_DDOT":0},{"OBJECT_NAME":"STARLINK-4019","OBJECT_ID":"2022-052A","EPOCH":"2026-03-20T10:11:50.320608","MEAN_MOTION":15.0883657,"ECCENTRICITY":9.866e-5,"INCLINATION":53.2183,"RA_OF_ASC_NODE":235.9261,"ARG_OF_PERICENTER":87.2455,"MEAN_ANOMALY":272.865,"EPHEMERIS_TYPE":0,"CLASSIFICATION_TYPE":"U","NORAD_CAT_ID":52598,"ELEMENT_SET_NO":999,"REV_AT_EPOCH":21320,"BSTAR":-2.569271e-5,"MEAN_MOTION_DOT":-6.97e-6,"MEAN_MOTION_DDOT":0},{"OBJECT_NAME":"STARLINK-4024","OBJECT_ID":"2022-052B","EPOCH":"2026-03-20T09:53:58.354080","MEAN_MOTION":15.08838715,"ECCENTRICITY":0.00012436,"INCLINATION":53.2172,"RA_OF_ASC_NODE":231.0897,"ARG_OF_PERICENTER":83.2052,"MEAN_ANOMALY":276.9081,"EPHEMERIS_TYPE":0,"CLASSIFICATION_TYPE":"U","NORAD_CAT_ID":52599,"ELEMENT_SET_NO":999,"REV_AT_EPOCH":21327,"BSTAR":-7.6559669e-5,"MEAN_MOTION_DOT":-1.506e-5,"MEAN_MOTION_DDOT":0},{"OBJECT_NAME":"STARLINK-4026","OBJECT_ID":"2022-052C","EPOCH":"2026-03-20T10:57:29.528064","MEAN_MOTION":15.08860647,"ECCENTRICITY":0.00010679,"INCLINATION":53.2149,"RA_OF_ASC_NODE":230.7878,"ARG_OF_PERICENTER":96.3579,"MEAN_ANOMALY":263.7535,"EPHEMERIS_TYPE":0,"CLASSIFICATION_TYPE":"U","NORAD_CAT_ID":52600,"ELEMENT_SET_NO":999,"REV_AT_EPOCH":21328,"BSTAR":0.00024269467,"MEAN_MOTION_DOT":3.579e-5,"MEAN_MOTION_DDOT":0},{"OBJECT_NAME":"STARLINK-4027","OBJECT_ID":"2022-052D","EPOCH":"2026-03-20T09:32:45.000384","MEAN_MOTION":15.08835368,"ECCENTRICITY":0.00012368,"INCLINATION":53.2167,"RA_OF_ASC_NODE":231.0519,"ARG_OF_PERICENTER":88.4696,"MEAN_ANOMALY":271.6438,"EPHEMERIS_TYPE":0,"CLASSIFICATION_TYPE":"U","NORAD_CAT_ID":52601,"ELEMENT_SET_NO":999,"REV_AT_EPOCH":21327,"BSTAR":4.1706775e-5,"MEAN_MOTION_DOT":3.76e-6,"MEAN_MOTION_DDOT":0},{"OBJECT_NAME":"STARLINK-4012","OBJECT_ID":"2022-052E","EPOCH":"2026-03-19T20:44:22.007040","MEAN_MOTION":15.08834616,"ECCENTRICITY":0.0001288,"INCLINATION":53.2167,"RA_OF_ASC_NODE":233.4475,"ARG_OF_PERICENTER":87.7302,"MEAN_ANOMALY":272.3838,"EPHEMERIS_TYPE":0,"CLASSIFICATION_TYPE":"U","NORAD_CAT_ID":52602,"ELEMENT_SET_NO":999,"REV_AT_EPOCH":21319,"BSTAR":1.9607e-5,"MEAN_MOTION_DOT":2.4e-7,"MEAN_MOTION_DDOT":0},{"OBJECT_NAME":"STARLINK-4016","OBJECT_ID":"2022-052F","EPOCH":"2026-03-20T09:07:38.237952","MEAN_MOTION":15.08837849,"ECCENTRICITY":0.00013419,"INCLINATION":53.217,"RA_OF_ASC_NODE":231.1392,"ARG_OF_PERICENTER":86.5532,"MEAN_ANOMALY":273.5614,"EPHEMERIS_TYPE":0,"CLASSIFICATION_TYPE":"U","NORAD_CAT_ID":52603,"ELEMENT_SET_NO":999,"REV_AT_EPOCH":21327,"BSTAR":-8.240683e-6,"MEAN_MOTION_DOT":-4.19e-6,"MEAN_MOTION_DDOT":0},{"OBJECT_NAME":"STARLINK-4013","OBJECT_ID":"2022-052G","EPOCH":"2026-03-20T10:52:14.163744","MEAN_MOTION":15.08836907,"ECCENTRICITY":0.00013156,"INCLINATION":53.2151,"RA_OF_ASC_NODE":230.8044,"ARG_OF_PERICENTER":91.9904,"MEAN_ANOMALY":268.1239,"EPHEMERIS_TYPE":0,"CLASSIFICATION_TYPE":"U","NORAD_CAT_ID":52604,"ELEMENT_SET_NO":999,"REV_AT_EPOCH":21248,"BSTAR":2.0409019e-5,"MEAN_MOTION_DOT":3.7e-7,"MEAN_MOTION_DDOT":0}]
